{
  "type": "FeatureCollection",
  "features": [
    {
      "type": "Feature",
      "geometry": {
        "type": "Point",
        "coordinates": [104.066667, 30.666667]
      },
      "properties": {
        "place_id": "ref_chengdu_modern",
        "name_ko": "성도",
        "name_zh": "成都",
        "pinyin": "Chengdu",
        "modern_hint": "현대 성도시 기준점. 삼국시대 성도성, 익주 행정구역, 궁성 범위 또는 전투 위치를 단정하지 않는다.",
        "time_from": 184,
        "time_to": 263,
        "confidence": "C",
        "accuracy_radius_m": 50000,
        "source_ids": ["nga_gns"],
        "note": "NGA GNS의 Chengdu PPLA 레코드를 현대 기준점으로만 사용한다. 성도의 삼국시대 역사적 성격은 별도 정사/학술 출처 교차검증 전까지 공개 데이터에서 주장하지 않는다."
      }
    },
    {
      "type": "Feature",
      "geometry": {
        "type": "Point",
        "coordinates": [107.022143, 33.075072]
      },
      "properties": {
        "place_id": "ref_hanzhong_modern",
        "name_ko": "한중",
        "name_zh": "漢中",
        "pinyin": "Hanzhong",
        "modern_hint": "현대 한중시 기준점. 한중군 전체 범위, 전역 범위 또는 전투 위치를 단정하지 않는다.",
        "time_from": 184,
        "time_to": 263,
        "confidence": "B",
        "accuracy_radius_m": 50000,
        "source_ids": ["nga_gns", "hanzhong_gov_overview_2025"],
        "note": "좌표는 NGA GNS의 Hanzhong PPL 레코드를 사용한다. 한중시 인민정부 개요는 현대 위치와 역사 문화 맥락 확인용으로만 연결했다."
      }
    }
  ]
}
